start=new Date('2022-08-24T00:00:00.000Z').valueOf();
sats=[{"ARG_OF_PERICENTER":"77.8365","GP_ID":"210859563","TLE_LINE1":"1 47666U 21012AY  22235.58829793  .00001389  00000-0  11214-3 0  9993","LAUNCH_DATE":"2021-02-16","RCS_SIZE":"LARGE","NORAD_CAT_ID":"47666","EPOCH":"2022-08-23T14:07:08.941152","REV_AT_EPOCH":"8528","DECAY_DATE":null,"PERIOD":"95.592","ECCENTRICITY":"0.00017030","EPHEMERIS_TYPE":"0","MEAN_MOTION":"15.06401467","FILE":"3545624","OBJECT_TYPE":"PAYLOAD","TLE_LINE2":"2 47666  53.0541  96.4230 0001703  77.8365 282.2815 15.06401467 85285","MEAN_ANOMALY":"282.2815","MEAN_MOTION_DOT":"0.00001389","COUNTRY_CODE":"US","OBJECT_ID":"2021-012AY","OBJECT_NAME":"STARLINK-2057","RA_OF_ASC_NODE":"96.4230","CLASSIFICATION_TYPE":"U","REF_FRAME":"TEME","APOAPSIS":"548.388","PERIAPSIS":"546.030","ELEMENT_SET_NO":"999","MEAN_ELEMENT_THEORY":"SGP4","CENTER_NAME":"EARTH","TIME_SYSTEM":"UTC","BSTAR":"0.00011214000000","MEAN_MOTION_DDOT":"0.0000000000000","SEMIMAJOR_AXIS":"6925.344","INCLINATION":"53.0541","SITE":"AFETR"},{"TIME_SYSTEM":"UTC","SITE":"AFETR","INCLINATION":"53.0540","SEMIMAJOR_AXIS":"6925.365","BSTAR":"0.00006394000000","MEAN_MOTION_DDOT":"0.0000000000000","CLASSIFICATION_TYPE":"U","OBJECT_NAME":"STARLINK-2058","OBJECT_ID":"2021-012AZ","RA_OF_ASC_NODE":"120.2358","MEAN_ELEMENT_THEORY":"SGP4","CENTER_NAME":"EARTH","ELEMENT_SET_NO":"999","REF_FRAME":"TEME","PERIAPSIS":"546.120","APOAPSIS":"548.341","MEAN_ANOMALY":"287.3764","TLE_LINE2":"2 47667  53.0540 120.2358 0001604  72.7400 287.3764 15.06394490 84944","MEAN_MOTION_DOT":"0.00000671","FILE":"3545624","OBJECT_TYPE":"PAYLOAD","EPHEMERIS_TYPE":"0","MEAN_MOTION":"15.06394490","COUNTRY_CODE":"US","RCS_SIZE":"LARGE","TLE_LINE1":"1 47667U 21012AZ  22235.77577805  .00000671  00000-0  63940-4 0  9996","LAUNCH_DATE":"2021-02-16","GP_ID":"210859811","ARG_OF_PERICENTER":"72.7400","ECCENTRICITY":"0.00016040","PERIOD":"95.592","DECAY_DATE":null,"EPOCH":"2022-08-23T18:37:07.223520","REV_AT_EPOCH":"8494","NORAD_CAT_ID":"47667"},{"ECCENTRICITY":"0.00014830","PERIOD":"95.592","DECAY_DATE":null,"EPOCH":"2022-08-23T21:13:42.178080","NORAD_CAT_ID":"47668","REV_AT_EPOCH":"8526","RCS_SIZE":"LARGE","LAUNCH_DATE":"2021-02-16","TLE_LINE1":"1 47668U 21012BA  22235.88451595  .00003069  00000-0  22486-3 0  9999","GP_ID":"210860065","ARG_OF_PERICENTER":"86.6904","COUNTRY_CODE":"US","MEAN_MOTION_DOT":"0.00003069","TLE_LINE2":"2 47668  53.0545  99.7317 0001483  86.6904 273.4255 15.06401800 85264","MEAN_ANOMALY":"273.4255","FILE":"3545624","OBJECT_TYPE":"PAYLOAD","MEAN_MOTION":"15.06401800","EPHEMERIS_TYPE":"0","CENTER_NAME":"EARTH","MEAN_ELEMENT_THEORY":"SGP4","ELEMENT_SET_NO":"999","PERIAPSIS":"546.181","APOAPSIS":"548.235","REF_FRAME":"TEME","CLASSIFICATION_TYPE":"U","RA_OF_ASC_NODE":"99.7317","OBJECT_NAME":"STARLINK-2059","OBJECT_ID":"2021-012BA","SITE":"AFETR","INCLINATION":"53.0545","SEMIMAJOR_AXIS":"6925.343","MEAN_MOTION_DDOT":"0.0000000000000","BSTAR":"0.00022486000000","TIME_SYSTEM":"UTC"},{"REF_FRAME":"TEME","PERIAPSIS":"533.246","APOAPSIS":"536.246","ELEMENT_SET_NO":"999","MEAN_ELEMENT_THEORY":"SGP4","CENTER_NAME":"EARTH","OBJECT_NAME":"STARLINK-2060","OBJECT_ID":"2021-012BB","RA_OF_ASC_NODE":"23.5111","CLASSIFICATION_TYPE":"U","BSTAR":"0.00027739000000","MEAN_MOTION_DDOT":"0.0000000000000","SEMIMAJOR_AXIS":"6912.881","INCLINATION":"53.0545","SITE":"AFETR","TIME_SYSTEM":"UTC","EPOCH":"2022-08-23T16:17:18.381408","REV_AT_EPOCH":"8628","NORAD_CAT_ID":"47669","DECAY_DATE":null,"PERIOD":"95.334","ECCENTRICITY":"0.00021700","GP_ID":"210860308","ARG_OF_PERICENTER":"68.8997","TLE_LINE1":"1 47669U 21012BB  22235.67868497  .00004328  00000-0  27739-3 0  9995","LAUNCH_DATE":"2021-02-16","RCS_SIZE":"LARGE","COUNTRY_CODE":"US","EPHEMERIS_TYPE":"0","MEAN_MOTION":"15.10477026","OBJECT_TYPE":"PAYLOAD","FILE":"3545624","TLE_LINE2":"2 47669  53.0545  23.5111 0002170  68.8997 291.2226 15.10477026 86287","MEAN_ANOMALY":"291.2226","MEAN_MOTION_DOT":"0.00004328"},{"APOAPSIS":"548.320","PERIAPSIS":"546.150","REF_FRAME":"TEME","CENTER_NAME":"EARTH","MEAN_ELEMENT_THEORY":"SGP4","ELEMENT_SET_NO":"999","RA_OF_ASC_NODE":"100.2635","OBJECT_NAME":"STARLINK-2062","OBJECT_ID":"2021-012BC","CLASSIFICATION_TYPE":"U","SEMIMAJOR_AXIS":"6925.370","MEAN_MOTION_DDOT":"0.0000000000000","BSTAR":"0.00016688000000","SITE":"AFETR","INCLINATION":"53.0556","TIME_SYSTEM":"UTC","DECAY_DATE":null,"NORAD_CAT_ID":"47670","REV_AT_EPOCH":"8523","EPOCH":"2022-08-23T18:23:51.355104","ECCENTRICITY":"0.00015670","PERIOD":"95.593","ARG_OF_PERICENTER":"67.8709","GP_ID":"210859064","RCS_SIZE":"LARGE","LAUNCH_DATE":"2021-02-16","TLE_LINE1":"1 47670U 21012BC  22235.76656661  .00002205  00000-0  16688-3 0  9998","COUNTRY_CODE":"US","MEAN_MOTION":"15.06393013","EPHEMERIS_TYPE":"0","MEAN_MOTION_DOT":"0.00002205","TLE_LINE2":"2 47670  53.0556 100.2635 0001567  67.8709 292.2446 15.06393013 85231","MEAN_ANOMALY":"292.2446","OBJECT_TYPE":"PAYLOAD","FILE":"3545624"},{"MEAN_ELEMENT_THEORY":"SGP4","CENTER_NAME":"EARTH","ELEMENT_SET_NO":"999","REF_FRAME":"TEME","APOAPSIS":"548.214","PERIAPSIS":"546.289","CLASSIFICATION_TYPE":"U","OBJECT_NAME":"STARLINK-2064","OBJECT_ID":"2021-012BD","RA_OF_ASC_NODE":"99.7420","SITE":"AFETR","INCLINATION":"53.0541","SEMIMAJOR_AXIS":"6925.386","BSTAR":"0.00011626000000","MEAN_MOTION_DDOT":"0.0000000000000","TIME_SYSTEM":"UTC","ECCENTRICITY":"0.00013900","PERIOD":"95.593","DECAY_DATE":null,"REV_AT_EPOCH":"8526","NORAD_CAT_ID":"47671","EPOCH":"2022-08-23T21:08:23.928000","RCS_SIZE":"LARGE","TLE_LINE1":"1 47671U 21012BD  22235.88083250  .00001450  00000-0  11626-3 0  9998","LAUNCH_DATE":"2021-02-16","GP_ID":"210859312","ARG_OF_PERICENTER":"82.5200","COUNTRY_CODE":"US","TLE_LINE2":"2 47671  53.0541  99.7420 0001390  82.5200 277.5947 15.06387645 85263","MEAN_ANOMALY":"277.5947","MEAN_MOTION_DOT":"0.00001450","OBJECT_TYPE":"PAYLOAD","FILE":"3545624","EPHEMERIS_TYPE":"0","MEAN_MOTION":"15.06387645"},{"PERIOD":"95.592","ECCENTRICITY":"0.00014020","EPOCH":"2022-08-23T20:37:52.819104","REV_AT_EPOCH":"8537","NORAD_CAT_ID":"47672","DECAY_DATE":null,"TLE_LINE1":"1 47672U 21012BE  22235.85963911  .00000517  00000-0  53581-4 0  9997","LAUNCH_DATE":"2021-02-16","RCS_SIZE":"LARGE","GP_ID":"210860565","ARG_OF_PERICENTER":"91.1181","COUNTRY_CODE":"US","FILE":"3545624","OBJECT_TYPE":"PAYLOAD","MEAN_ANOMALY":"268.9969","TLE_LINE2":"2 47672  53.0566  89.8591 0001402  91.1181 268.9969 15.06394990 85379","MEAN_MOTION_DOT":"0.00000517","EPHEMERIS_TYPE":"0","MEAN_MOTION":"15.06394990","ELEMENT_SET_NO":"999","MEAN_ELEMENT_THEORY":"SGP4","CENTER_NAME":"EARTH","REF_FRAME":"TEME","PERIAPSIS":"546.258","APOAPSIS":"548.200","CLASSIFICATION_TYPE":"U","OBJECT_ID":"2021-012BE","OBJECT_NAME":"STARLINK-2065","RA_OF_ASC_NODE":"89.8591","INCLINATION":"53.0566","SITE":"AFETR","BSTAR":"0.00005358100000","MEAN_MOTION_DDOT":"0.0000000000000","SEMIMAJOR_AXIS":"6925.364","TIME_SYSTEM":"UTC"},{"REF_FRAME":"TEME","APOAPSIS":"548.327","PERIAPSIS":"546.160","MEAN_ELEMENT_THEORY":"SGP4","CENTER_NAME":"EARTH","ELEMENT_SET_NO":"999","OBJECT_NAME":"STARLINK-2066","OBJECT_ID":"2021-012BF","RA_OF_ASC_NODE":"102.0485","CLASSIFICATION_TYPE":"U","SEMIMAJOR_AXIS":"6925.379","BSTAR":"0.00017489000000","MEAN_MOTION_DDOT":"0.0000000000000","SITE":"AFETR","INCLINATION":"53.0545","TIME_SYSTEM":"UTC","DECAY_DATE":null,"NORAD_CAT_ID":"47673","EPOCH":"2022-08-23T08:55:56.085888","REV_AT_EPOCH":"8517","ECCENTRICITY":"0.00015650","PERIOD":"95.593","GP_ID":"210821799","ARG_OF_PERICENTER":"67.2413","RCS_SIZE":"LARGE","TLE_LINE1":"1 47673U 21012BF  22235.37217692  .00002324  00000-0  17489-3 0  9997","LAUNCH_DATE":"2021-02-16","COUNTRY_CODE":"US","EPHEMERIS_TYPE":"0","MEAN_MOTION":"15.06390218","MEAN_ANOMALY":"292.8741","TLE_LINE2":"2 47673  53.0545 102.0485 0001565  67.2413 292.8741 15.06390218 85170","MEAN_MOTION_DOT":"0.00002324","FILE":"3545070","OBJECT_TYPE":"PAYLOAD"},{"COUNTRY_CODE":"US","MEAN_MOTION_DOT":"0.00001864","TLE_LINE2":"2 47674  53.0553 100.4716 0001585  75.8542 284.2623 15.06395971 85231","MEAN_ANOMALY":"284.2623","FILE":"3545624","OBJECT_TYPE":"PAYLOAD","MEAN_MOTION":"15.06395971","EPHEMERIS_TYPE":"0","ECCENTRICITY":"0.00015850","PERIOD":"95.592","DECAY_DATE":null,"NORAD_CAT_ID":"47674","EPOCH":"2022-08-23T17:13:28.840224","REV_AT_EPOCH":"8523","RCS_SIZE":"LARGE","LAUNCH_DATE":"2021-02-16","TLE_LINE1":"1 47674U 21012BG  22235.71769491  .00001864  00000-0  14399-3 0  9990","GP_ID":"210859564","ARG_OF_PERICENTER":"75.8542","SITE":"AFETR","INCLINATION":"53.0553","SEMIMAJOR_AXIS":"6925.361","MEAN_MOTION_DDOT":"0.0000000000000","BSTAR":"0.00014399000000","TIME_SYSTEM":"UTC","CENTER_NAME":"EARTH","MEAN_ELEMENT_THEORY":"SGP4","ELEMENT_SET_NO":"999","APOAPSIS":"548.324","PERIAPSIS":"546.128","REF_FRAME":"TEME","CLASSIFICATION_TYPE":"U","RA_OF_ASC_NODE":"100.4716","OBJECT_ID":"2021-012BG","OBJECT_NAME":"STARLINK-2067"},{"ECCENTRICITY":"0.00013670","PERIOD":"95.592","DECAY_DATE":null,"EPOCH":"2022-08-23T18:39:46.493280","REV_AT_EPOCH":"8524","NORAD_CAT_ID":"47675","RCS_SIZE":"LARGE","LAUNCH_DATE":"2021-02-16","TLE_LINE1":"1 47675U 21012BH  22235.77762145  .00001144  00000-0  95669-4 0  9997","GP_ID":"210859812","ARG_OF_PERICENTER":"85.8056","COUNTRY_CODE":"US","MEAN_MOTION_DOT":"0.00001144","MEAN_ANOMALY":"274.3089","TLE_LINE2":"2 47675  53.0542 100.2148 0001367  85.8056 274.3089 15.06399155 85241","OBJECT_TYPE":"PAYLOAD","FILE":"3545624","MEAN_MOTION":"15.06399155","EPHEMERIS_TYPE":"0","CENTER_NAME":"EARTH","MEAN_ELEMENT_THEORY":"SGP4","ELEMENT_SET_NO":"999","APOAPSIS":"548.163","PERIAPSIS":"546.269","REF_FRAME":"TEME","CLASSIFICATION_TYPE":"U","RA_OF_ASC_NODE":"100.2148","OBJECT_NAME":"STARLINK-2078","OBJECT_ID":"2021-012BH","SITE":"AFETR","INCLINATION":"53.0542","SEMIMAJOR_AXIS":"6925.351","MEAN_MOTION_DDOT":"0.0000000000000","BSTAR":"0.00009566900000","TIME_SYSTEM":"UTC"}];
